STARLINK-1646_new
1 16351C 20062AD  21326.14982879  .00002918  00000-0  19553-3 0  3261
2 16351  53.0514 198.0686 0002063  74.6732  70.6692 15.06387344    19
STARLINK-1646_old
1 26351C 20062AD  21325.16738683  .00009440  00000-0  63235-3 0  3256
2 26351  53.0513 202.4792 0002089  74.8794 139.6625 15.06396508    18
